NORAD_CAT_ID,OBJECT_NAME,OBJECT_TYPE,EPOCH,MEAN_MOTION,ECCENTRICITY,INCLINATION,RA_OF_ASC_NODE,ARG_OF_PERICENTER,MEAN_ANOMALY,BSTAR,MEAN_MOTION_DOT,MEAN_MOTION_DDOT,TLE_LINE0,TLE_LINE1,TLE_LINE2,SEMIMAJOR_AXIS,PERIOD,APOGEE,PERIGEE,DECAYED
51892.0,STARLINK-3587,PAYLOAD,2023-10-11 11:41:31,15.08836569,0.0001495,53.2189,350.5062,96.2799,263.8364,5.5457e-05,5.95e-06,0.0,0 STARLINK-3587,1 51892U 22022AS  23284.48717487  .00000595  00000-0  55457-4 0  9997,2 51892  53.2189 350.5062 0001495  96.2799 263.8364 15.08836569 90368,6917.891,95.438,540.79,538.722,0.0
51892.0,STARLINK-3587,PAYLOAD,2023-10-11 13:16:55,15.08837653,0.000147,53.2188,350.2081,94.3629,265.7531,8.0047e-05,9.86e-06,0.0,0 STARLINK-3587,1 51892U 22022AS  23284.55341475  .00000986  00000-0  80047-4 0  9992,2 51892  53.2188 350.2081 0001470  94.3629 265.7531 15.08837653 90372,6917.888,95.438,540.769,538.736,0.0
51892.0,STARLINK-3587,PAYLOAD,2023-10-12 11:32:18,15.08844197,0.000148,53.219,346.0462,93.6548,266.4614,0.00020099,2.913e-05,0.0,0 STARLINK-3587,1 51892U 22022AS  23285.48077540  .00002913  00000-0  20099-3 0  9996,2 51892  53.2190 346.0462 0001480  93.6548 266.4614 15.08844197 90511,6917.868,95.437,540.756,538.709,0.0
51892.0,STARLINK-3587,PAYLOAD,2023-10-13 03:26:10,15.08840622,0.0001617,53.2181,343.0712,99.4613,260.6562,0.00015792,2.226e-05,0.0,0 STARLINK-3587,1 51892U 22022AS  23286.14317841  .00002226  00000-0  15792-3 0  9992,2 51892  53.2181 343.0712 0001617  99.4613 260.6562 15.08840622 90613,6917.878,95.438,540.862,538.625,0.0
51892.0,STARLINK-3587,PAYLOAD,2023-10-13 11:23:06,15.08845745,0.000176,53.219,341.5861,69.9132,290.2049,0.00024433,3.603e-05,0.0,0 STARLINK-3587,1 51892U 22022AS  23286.47437871  .00003603  00000-0  24433-3 0  9996,2 51892  53.2190 341.5861 0001760  69.9132 290.2049 15.08845745 90663,6917.863,95.437,540.945,538.51,0.0
51892.0,STARLINK-3587,PAYLOAD,2023-10-14 09:38:29,15.08855453,0.0001467,53.2166,337.4222,76.6782,283.4374,0.00028383,4.234e-05,0.0,0 STARLINK-3587,1 51892U 22022AS  23287.40173024  .00004234  00000-0  28383-3 0  9996,2 51892  53.2166 337.4222 0001467  76.6782 283.4374 15.08855453 90809,6917.833,95.437,540.713,538.683,0.0
51892.0,STARLINK-3587,PAYLOAD,2023-10-14 12:49:15,15.08863239,0.000159,53.2171,336.8258,84.6833,275.434,0.00042757,6.528e-05,0.0,0 STARLINK-3587,1 51892U 22022AS  23287.53420591  .00006528  00000-0  42757-3 0  9993,2 51892  53.2171 336.8258 0001590  84.6833 275.4340 15.08863239 90827,6917.809,95.436,540.774,538.574,0.0
51892.0,STARLINK-3587,PAYLOAD,2023-10-14 20:46:11,15.08840071,0.0001469,53.2177,335.3411,78.7367,281.3791,-2.3993e-05,-6.7e-06,0.0,0 STARLINK-3587,1 51892U 22022AS  23287.86541446 -.00000670  00000-0 -23993-4 0  9998,2 51892  53.2177 335.3411 0001469  78.7367 281.3791 15.08840071 90879,6917.88,95.438,540.761,538.729,0.0
51892.0,STARLINK-3587,PAYLOAD,2023-10-15 03:07:44,15.08835394,0.0002455,53.2168,334.1514,83.2025,276.9246,-8.4378e-05,-1.631e-05,0.0,0 STARLINK-3587,1 51892U 22022AS  23288.13038080 -.00001631  00000-0 -84378-4 0  9996,2 51892  53.2168 334.1514 0002455  83.2025 276.9246 15.08835394 90910,6917.894,95.438,541.458,538.061,0.0
51892.0,STARLINK-3587,PAYLOAD,2023-10-15 09:29:17,15.08824431,0.0001538,53.2165,332.9616,90.2257,269.8911,-0.00025057,-4.272e-05,0.0,0 STARLINK-3587,1 51892U 22022AS  23288.39534424 -.00004272  00000-0 -25057-3 0  9999,2 51892  53.2165 332.9616 0001538  90.2257 269.8911 15.08824431 90956,6917.928,95.439,540.857,538.729,0.0
51892.0,STARLINK-3587,PAYLOAD,2023-10-15 20:36:59,15.08832289,0.0001806,53.2171,330.878,98.3326,261.7871,8.5013e-06,-1.53e-06,0.0,0 STARLINK-3587,1 51892U 22022AS  23288.85902502 -.00000153  00000-0  85013-5 0  9999,2 51892  53.2171 330.8780 0001806  98.3326 261.7871 15.08832289 91021,6917.904,95.438,541.018,538.52,0.0
51892.0,STARLINK-3587,PAYLOAD,2023-10-16 09:20:04,15.08848735,0.0001763,53.2158,328.4996,96.6373,263.4819,0.00090791,0.00014194,0.0,0 STARLINK-3587,1 51892U 22022AS  23289.38894563  .00014194  00000-0  90791-3 0  9991,2 51892  53.2158 328.4996 0001763  96.6373 263.4819 15.08848735 91106,6917.854,95.437,540.938,538.499,0.0
51892.0,STARLINK-3587,PAYLOAD,2023-10-16 12:30:51,15.08859038,0.0001785,53.2158,327.905,96.0251,264.0944,0.001212,0.00019064,0.0,0 STARLINK-3587,1 51892U 22022AS  23289.52142421  .00019064  00000-0  12120-2 0  9996,2 51892  53.2158 327.9050 0001785  96.0251 264.0944 15.08859038 91120,6917.822,95.436,540.922,538.452,0.0
51892.0,STARLINK-3587,PAYLOAD,2023-10-17 12:21:37,15.08862267,0.000156,53.2163,323.4443,91.255,268.8621,0.00094905,0.00014858,0.0,0 STARLINK-3587,1 51892U 22022AS  23290.51502076  .00014858  00000-0  94905-3 0  9991,2 51892  53.2163 323.4443 0001560  91.2550 268.8621 15.08862267 91271,6917.812,95.436,540.757,538.598,0.0
51892.0,STARLINK-3587,PAYLOAD,2023-10-18 02:40:06,15.08853252,0.0001806,53.2172,320.7678,104.3419,255.7774,0.0010358,0.00016241,0.0,0 STARLINK-3587,1 51892U 22022AS  23291.11118273  .00016241  00000-0  10358-2 0  9997,2 51892  53.2172 320.7678 0001806 104.3419 255.7774 15.08853252 91362,6917.84,95.437,540.954,538.456,0.0
51892.0,STARLINK-3587,PAYLOAD,2023-10-18 09:01:38,15.088471,0.0001667,53.2168,319.5781,86.3014,273.8168,0.00034976,5.284e-05,0.0,0 STARLINK-3587,1 51892U 22022AS  23291.37614334  .00005284  00000-0  34976-3 0  9992,2 51892  53.2168 319.5781 0001667  86.3014 273.8168 15.08847100 91401,6917.859,95.437,540.877,538.57,0.0
51892.0,STARLINK-3587,PAYLOAD,2023-10-19 00:55:30,15.08847639,0.0001645,53.2166,316.6056,88.6118,271.5063,0.00029585,4.425e-05,0.0,0 STARLINK-3587,1 51892U 22022AS  23292.03854312  .00004425  00000-0  29585-3 0  9994,2 51892  53.2166 316.6056 0001645  88.6118 271.5063 15.08847639 91505,6917.857,95.437,540.86,538.584,0.0
51892.0,STARLINK-3587,PAYLOAD,2023-10-19 07:17:02,15.08850602,0.000165,53.2166,315.4163,87.5168,272.6013,0.00033094,4.984e-05,0.0,0 STARLINK-3587,1 51892U 22022AS  23292.30350132  .00004984  00000-0  33094-3 0  9995,2 51892  53.2166 315.4163 0001650  87.5168 272.6013 15.08850602 91545,6917.848,95.437,540.854,538.572,0.0
51892.0,STARLINK-3587,PAYLOAD,2023-10-19 18:24:44,15.088495,0.000164,53.2162,313.3346,86.0469,274.071,0.00029342,4.386e-05,0.0,0 STARLINK-3587,1 51892U 22022AS  23292.76718055  .00004386  00000-0  29342-3 0  9994,2 51892  53.2162 313.3346 0001640  86.0469 274.0710 15.08849500 91611,6917.851,95.437,540.851,538.582,0.0
51892.0,STARLINK-3587,PAYLOAD,2023-10-20 00:46:17,15.08846183,0.000198,53.2172,312.147,87.91,272.2119,0.00020632,2.998e-05,0.0,0 STARLINK-3587,1 51892U 22022AS  23293.03214200  .00002998  00000-0  20632-3 0  9998,2 51892  53.2172 312.1470 0001980  87.9100 272.2119 15.08846183 91657,6917.861,95.437,541.096,538.357,0.0
51892.0,STARLINK-3587,PAYLOAD,2023-10-20 11:53:59,15.08838719,0.0001703,53.2169,310.0634,83.4976,276.621,4.3709e-05,4.08e-06,0.0,0 STARLINK-3587,1 51892U 22022AS  23293.49582598  .00000408  00000-0  43709-4 0  9991,2 51892  53.2169 310.0634 0001703  83.4976 276.6210 15.08838719 91721,6917.884,95.438,540.927,538.571,0.0
51892.0,STARLINK-3587,PAYLOAD,2023-10-21 08:34:00,15.08841359,0.0001799,53.2177,306.1947,86.4715,273.6483,5.0905e-05,5.22e-06,0.0,0 STARLINK-3587,1 51892U 22022AS  23294.35694823  .00000522  00000-0  50905-4 0  9995,2 51892  53.2177 306.1947 0001799  86.4715 273.6483 15.08841359 91859,6917.876,95.437,540.986,538.497,0.0
51892.0,STARLINK-3587,PAYLOAD,2023-10-22 10:00:10,15.08849732,0.0001594,53.2173,301.4375,101.9246,258.1925,0.00029541,4.418e-05,0.0,0 STARLINK-3587,1 51892U 22022AS  23295.41678445  .00004418  00000-0  29541-3 0  9994,2 51892  53.2173 301.4375 0001594 101.9246 258.1925 15.08849732 92014,6917.851,95.437,540.818,538.613,0.0
51892.0,STARLINK-3587,PAYLOAD,2023-10-23 06:40:11,15.08839222,0.0001454,53.2184,297.5691,110.7644,249.3504,1.8376e-05,5e-08,0.0,0 STARLINK-3587,1 51892U 22022AS  23296.27790953  .00000005  00000-0  18376-4 0  9991,2 51892  53.2184 297.5691 0001454 110.7644 249.3504 15.08839222 92149,6917.883,95.438,540.754,538.742,0.0
51892.0,STARLINK-3587,PAYLOAD,2023-10-23 17:47:53,15.08835958,0.0001487,53.2174,295.49,104.8716,255.2441,-4.1396e-06,-3.54e-06,0.0,0 STARLINK-3587,1 51892U 22022AS  23296.74159274 -.00000354  00000-0 -41396-5 0  9996,2 51892  53.2174 295.4900 0001487 104.8716 255.2441 15.08835958 92214,6917.893,95.438,540.786,538.729,0.0
51892.0,STARLINK-3587,PAYLOAD,2023-10-24 09:41:44,15.08846068,0.000147,53.2176,292.5173,95.3955,264.7205,2.3705e-05,8.9e-07,0.0,0 STARLINK-3587,1 51892U 22022AS  23297.40398897  .00000089  00000-0  23705-4 0  9992,2 51892  53.2176 292.5173 0001470  95.3955 264.7205 15.08846068 92315,6917.862,95.437,540.744,538.71,0.0
51892.0,STARLINK-3587,PAYLOAD,2023-10-25 09:32:31,15.08840805,0.0001527,53.2171,288.0568,98.3296,261.7869,0.00027453,4.084e-05,0.0,0 STARLINK-3587,1 51892U 22022AS  23298.39759041  .00004084  00000-0  27453-3 0  9995,2 51892  53.2171 288.0568 0001527  98.3296 261.7869 15.08840805 92464,6917.878,95.438,540.799,538.687,0.0
51892.0,STARLINK-3587,PAYLOAD,2023-10-26 04:37:09,15.0884078,0.0001462,53.2168,284.488,96.2974,263.8184,7.9867e-05,9.83e-06,0.0,0 STARLINK-3587,1 51892U 22022AS  23299.19247417  .00000983  00000-0  79867-4 0  9994,2 51892  53.2168 284.4880 0001462  96.2974 263.8184 15.08840780 92583,6917.878,95.438,540.754,538.732,0.0
51892.0,STARLINK-3587,PAYLOAD,2023-10-26 07:47:55,15.0884504,0.0001468,53.2162,283.895,91.1784,268.9376,0.00010653,1.408e-05,0.0,0 STARLINK-3587,1 51892U 22022AS  23299.32495012  .00001408  00000-0  10653-3 0  9995,2 51892  53.2162 283.8950 0001468  91.1784 268.9376 15.08845040 92603,6917.865,95.437,540.746,538.714,0.0
51892.0,STARLINK-3587,PAYLOAD,2023-10-27 07:38:42,15.0885181,0.000151,53.217,279.4336,91.467,268.6495,0.00016561,2.35e-05,0.0,0 STARLINK-3587,1 51892U 22022AS  23300.31854509  .00002350  00000-0  16561-3 0  9998,2 51892  53.2170 279.4336 0001510  91.4670 268.6495 15.08851810 92753,6917.844,95.437,540.754,538.665,0.0
